[
    {
        "CCSDS_OMM_VERS": "3.0",
        "COMMENT": "GENERATED VIA SPACE-TRACK.ORG API",
        "CREATION_DATE": "2024-08-10T22:46:31",
        "ORIGINATOR": "18 SPCS",
        "OBJECT_NAME": "SL-16 DEB",
        "OBJECT_ID": "1992-093HT",
        "CENTER_NAME": "EARTH",
        "REF_FRAME": "TEME",
        "TIME_SYSTEM": "UTC",
        "MEAN_ELEMENT_THEORY": "SGP4",
        "EPOCH": "2024-08-10T21:05:05.401536",
        "MEAN_MOTION": "14.42101039",
        "ECCENTRICITY": "0.00981340",
        "INCLINATION": "71.3500",
        "RA_OF_ASC_NODE": "31.0813",
        "ARG_OF_PERICENTER": "278.7865",
        "MEAN_ANOMALY": "80.2171",
        "EPHEMERIS_TYPE": "0",
        "CLASSIFICATION_TYPE": "U",
        "NORAD_CAT_ID": "22571",
        "ELEMENT_SET_NO": "999",
        "REV_AT_EPOCH": "60635",
        "BSTAR": "0.00954150000000",
        "MEAN_MOTION_DOT": "0.00033361",
        "MEAN_MOTION_DDOT": "0.0000000000000",
        "SEMIMAJOR_AXIS": "7129.702",
        "PERIOD": "99.854",
        "APOAPSIS": "821.534",
        "PERIAPSIS": "681.600",
        "OBJECT_TYPE": "DEBRIS",
        "RCS_SIZE": "SMALL",
        "COUNTRY_CODE": "CIS",
        "LAUNCH_DATE": "1992-12-25",
        "SITE": "TTMTR",
        "DECAY_DATE": null,
        "FILE": "4427493",
        "GP_ID": "264736244",
        "TLE_LINE0": "0 SL-16 DEB",
        "TLE_LINE1": "1 22571U 92093HT  24223.87853474  .00033361  00000-0  95415-2 0  9991",
        "TLE_LINE2": "2 22571  71.3500  31.0813 0098134 278.7865  80.2171 14.42101039606353"
    },
    {
        "CCSDS_OMM_VERS": "3.0",
        "COMMENT": "GENERATED VIA SPACE-TRACK.ORG API",
        "CREATION_DATE": "2024-08-10T22:26:16",
        "ORIGINATOR": "18 SPCS",
        "OBJECT_NAME": "ROCSAT 2",
        "OBJECT_ID": "2004-018A",
        "CENTER_NAME": "EARTH",
        "REF_FRAME": "TEME",
        "TIME_SYSTEM": "UTC",
        "MEAN_ELEMENT_THEORY": "SGP4",
        "EPOCH": "2024-08-10T21:05:03.683904",
        "MEAN_MOTION": "14.01118798",
        "ECCENTRICITY": "0.00023540",
        "INCLINATION": "98.7586",
        "RA_OF_ASC_NODE": "204.7474",
        "ARG_OF_PERICENTER": "47.8402",
        "MEAN_ANOMALY": "9.2870",
        "EPHEMERIS_TYPE": "0",
        "CLASSIFICATION_TYPE": "U",
        "NORAD_CAT_ID": "28254",
        "ELEMENT_SET_NO": "999",
        "REV_AT_EPOCH": "3422",
        "BSTAR": "0.00024513000000",
        "MEAN_MOTION_DOT": "0.00000326",
        "MEAN_MOTION_DDOT": "0.0000000000000",
        "SEMIMAJOR_AXIS": "7268.061",
        "PERIOD": "102.775",
        "APOAPSIS": "891.636",
        "PERIAPSIS": "888.215",
        "OBJECT_TYPE": "PAYLOAD",
        "RCS_SIZE": "LARGE",
        "COUNTRY_CODE": "TWN",
        "LAUNCH_DATE": "2004-05-20",
        "SITE": "AFWTR",
        "DECAY_DATE": null,
        "FILE": "4427234",
        "GP_ID": "264731204",
        "TLE_LINE0": "0 ROCSAT 2",
        "TLE_LINE1": "1 28254U 04018A   24223.87851486  .00000326  00000-0  24513-3 0  9993",
        "TLE_LINE2": "2 28254  98.7586 204.7474 0002354  47.8402   9.2870 14.01118798 34220"
    },
    {
        "CCSDS_OMM_VERS": "3.0",
        "COMMENT": "GENERATED VIA SPACE-TRACK.ORG API",
        "CREATION_DATE": "2024-08-10T22:36:16",
        "ORIGINATOR": "18 SPCS",
        "OBJECT_NAME": "THORAD AGENA D DEB",
        "OBJECT_ID": "1970-025DK",
        "CENTER_NAME": "EARTH",
        "REF_FRAME": "TEME",
        "TIME_SYSTEM": "UTC",
        "MEAN_ELEMENT_THEORY": "SGP4",
        "EPOCH": "2024-08-10T21:04:59.369088",
        "MEAN_MOTION": "14.73254463",
        "ECCENTRICITY": "0.00458410",
        "INCLINATION": "99.5893",
        "RA_OF_ASC_NODE": "184.8168",
        "ARG_OF_PERICENTER": "38.2802",
        "MEAN_ANOMALY": "322.1641",
        "EPHEMERIS_TYPE": "0",
        "CLASSIFICATION_TYPE": "U",
        "NORAD_CAT_ID": "4765",
        "ELEMENT_SET_NO": "999",
        "REV_AT_EPOCH": "80902",
        "BSTAR": "0.00785480000000",
        "MEAN_MOTION_DOT": "0.00051915",
        "MEAN_MOTION_DDOT": "0.0000000000000",
        "SEMIMAJOR_AXIS": "7028.835",
        "PERIOD": "97.743",
        "APOAPSIS": "682.921",
        "PERIAPSIS": "618.479",
        "OBJECT_TYPE": "DEBRIS",
        "RCS_SIZE": "MEDIUM",
        "COUNTRY_CODE": "US",
        "LAUNCH_DATE": "1970-04-08",
        "SITE": "AFWTR",
        "DECAY_DATE": null,
        "FILE": "4427299",
        "GP_ID": "264732205",
        "TLE_LINE0": "0 THORAD AGENA D DEB",
        "TLE_LINE1": "1  4765U 70025DK  24223.87846492  .00051915  00000-0  78548-2 0  9992",
        "TLE_LINE2": "2  4765  99.5893 184.8168 0045841  38.2802 322.1641 14.73254463809025"
    },
    {
        "CCSDS_OMM_VERS": "3.0",
        "COMMENT": "GENERATED VIA SPACE-TRACK.ORG API",
        "CREATION_DATE": "2024-08-10T22:56:16",
        "ORIGINATOR": "18 SPCS",
        "OBJECT_NAME": "YAOGAN-30 Y",
        "OBJECT_ID": "2021-039B",
        "CENTER_NAME": "EARTH",
        "REF_FRAME": "TEME",
        "TIME_SYSTEM": "UTC",
        "MEAN_ELEMENT_THEORY": "SGP4",
        "EPOCH": "2024-08-10T21:04:52.242816",
        "MEAN_MOTION": "14.95828202",
        "ECCENTRICITY": "0.00042970",
        "INCLINATION": "34.9953",
        "RA_OF_ASC_NODE": "169.5542",
        "ARG_OF_PERICENTER": "32.6671",
        "MEAN_ANOMALY": "327.4301",
        "EPHEMERIS_TYPE": "0",
        "CLASSIFICATION_TYPE": "U",
        "NORAD_CAT_ID": "48424",
        "ELEMENT_SET_NO": "999",
        "REV_AT_EPOCH": "17810",
        "BSTAR": "0.00078947000000",
        "MEAN_MOTION_DOT": "0.00008972",
        "MEAN_MOTION_DDOT": "0.0000000000000",
        "SEMIMAJOR_AXIS": "6957.940",
        "PERIOD": "96.268",
        "APOAPSIS": "582.795",
        "PERIAPSIS": "576.815",
        "OBJECT_TYPE": "PAYLOAD",
        "RCS_SIZE": "LARGE",
        "COUNTRY_CODE": "PRC",
        "LAUNCH_DATE": "2021-05-06",
        "SITE": "XSC",
        "DECAY_DATE": null,
        "FILE": "4427648",
        "GP_ID": "264740696",
        "TLE_LINE0": "0 YAOGAN-30 Y",
        "TLE_LINE1": "1 48424U 21039B   24223.87838244  .00008972  00000-0  78947-3 0  9998",
        "TLE_LINE2": "2 48424  34.9953 169.5542 0004297  32.6671 327.4301 14.95828202178104"
    },
    {
        "CCSDS_OMM_VERS": "3.0",
        "COMMENT": "GENERATED VIA SPACE-TRACK.ORG API",
        "CREATION_DATE": "2024-08-10T22:36:16",
        "ORIGINATOR": "18 SPCS",
        "OBJECT_NAME": "COSMOS 516",
        "OBJECT_ID": "1972-066A",
        "CENTER_NAME": "EARTH",
        "REF_FRAME": "TEME",
        "TIME_SYSTEM": "UTC",
        "MEAN_ELEMENT_THEORY": "SGP4",
        "EPOCH": "2024-08-10T21:04:50.259936",
        "MEAN_MOTION": "13.77752353",
        "ECCENTRICITY": "0.00891500",
        "INCLINATION": "64.8103",
        "RA_OF_ASC_NODE": "133.1973",
        "ARG_OF_PERICENTER": "285.8765",
        "MEAN_ANOMALY": "73.2478",
        "EPHEMERIS_TYPE": "0",
        "CLASSIFICATION_TYPE": "U",
        "NORAD_CAT_ID": "6154",
        "ELEMENT_SET_NO": "999",
        "REV_AT_EPOCH": "61506",
        "BSTAR": "0.00007270200000",
        "MEAN_MOTION_DOT": "-0.00000014",
        "MEAN_MOTION_DDOT": "0.0000000000000",
        "SEMIMAJOR_AXIS": "7350.007",
        "PERIOD": "104.518",
        "APOAPSIS": "1037.397",
        "PERIAPSIS": "906.346",
        "OBJECT_TYPE": "PAYLOAD",
        "RCS_SIZE": "LARGE",
        "COUNTRY_CODE": "CIS",
        "LAUNCH_DATE": "1972-08-21",
        "SITE": "TTMTR",
        "DECAY_DATE": null,
        "FILE": "4427298",
        "GP_ID": "264732506",
        "TLE_LINE0": "0 COSMOS 516",
        "TLE_LINE1": "1  6154U 72066A   24223.87835949 -.00000014  00000-0  72702-4 0  9991",
        "TLE_LINE2": "2  6154  64.8103 133.1973 0089150 285.8765  73.2478 13.77752353615063"
    },
    {
        "CCSDS_OMM_VERS": "3.0",
        "COMMENT": "GENERATED VIA SPACE-TRACK.ORG API",
        "CREATION_DATE": "2024-08-10T22:36:16",
        "ORIGINATOR": "18 SPCS",
        "OBJECT_NAME": "STARLINK-5535",
        "OBJECT_ID": "2023-058AR",
        "CENTER_NAME": "EARTH",
        "REF_FRAME": "TEME",
        "TIME_SYSTEM": "UTC",
        "MEAN_ELEMENT_THEORY": "SGP4",
        "EPOCH": "2024-08-10T21:04:48.103392",
        "MEAN_MOTION": "15.01266057",
        "ECCENTRICITY": "0.00028180",
        "INCLINATION": "97.6542",
        "RA_OF_ASC_NODE": "224.0014",
        "ARG_OF_PERICENTER": "82.8476",
        "MEAN_ANOMALY": "277.3069",
        "EPHEMERIS_TYPE": "0",
        "CLASSIFICATION_TYPE": "U",
        "NORAD_CAT_ID": "56356",
        "ELEMENT_SET_NO": "999",
        "REV_AT_EPOCH": "7125",
        "BSTAR": "0.00008679100000",
        "MEAN_MOTION_DOT": "0.00001056",
        "MEAN_MOTION_DDOT": "0.0000000000000",
        "SEMIMAJOR_AXIS": "6941.128",
        "PERIOD": "95.919",
        "APOAPSIS": "564.949",
        "PERIAPSIS": "561.037",
        "OBJECT_TYPE": "PAYLOAD",
        "RCS_SIZE": "LARGE",
        "COUNTRY_CODE": "US",
        "LAUNCH_DATE": "2023-04-27",
        "SITE": "AFWTR",
        "DECAY_DATE": null,
        "FILE": "4427302",
        "GP_ID": "264732901",
        "TLE_LINE0": "0 STARLINK-5535",
        "TLE_LINE1": "1 56356U 23058AR  24223.87833453  .00001056  00000-0  86791-4 0  9994",
        "TLE_LINE2": "2 56356  97.6542 224.0014 0002818  82.8476 277.3069 15.01266057 71259"
    }
]